NORAD_CAT_ID,OBJECT_NAME,OBJECT_TYPE,EPOCH,MEAN_MOTION,ECCENTRICITY,INCLINATION,RA_OF_ASC_NODE,ARG_OF_PERICENTER,MEAN_ANOMALY,BSTAR,MEAN_MOTION_DOT,MEAN_MOTION_DDOT,TLE_LINE0,TLE_LINE1,TLE_LINE2,SEMIMAJOR_AXIS,PERIOD,APOGEE,PERIGEE,DECAYED
52295.0,STARLINK-3765,PAYLOAD,2023-03-15 21:49:07,15.08858323,8.32e-05,53.2153,311.3389,45.8569,314.2491,0.00057636,8.901e-05,0.0,0 STARLINK-3765,1 52295U 22041AL  23074.90911644  .00008901  00000-0  57636-3 0  9990,2 52295  53.2153 311.3389 0000832  45.8569 314.2491 15.08858323 49989,6917.824,95.436,540.265,539.114,0.0
52295.0,STARLINK-3765,PAYLOAD,2023-03-16 00:59:53,15.08877585,0.0001081,53.2152,310.7437,79.9446,280.1668,0.0011794,0.00018551,0.0,0 STARLINK-3765,1 52295U 22041AL  23075.04159366  .00018551  00000-0  11794-2 0  9997,2 52295  53.2152 310.7437 0001081  79.9446 280.1668 15.08877585 50007,6917.766,95.435,540.378,538.883,0.0
52295.0,STARLINK-3765,PAYLOAD,2023-03-16 21:39:54,15.08844319,8.89e-05,53.2156,306.8783,94.4644,265.6449,-0.00012545,-2.284e-05,0.0,0 STARLINK-3765,1 52295U 22041AL  23075.90271764 -.00002284  00000-0 -12545-3 0  9993,2 52295  53.2156 306.8783 0000889  94.4644 265.6449 15.08844319 51351,6917.867,95.437,540.347,539.117,0.0
52295.0,STARLINK-3765,PAYLOAD,2023-03-17 08:47:37,15.08834241,0.0001004,53.2152,304.7959,96.7374,263.3732,0.00034988,5.284e-05,0.0,0 STARLINK-3765,1 52295U 22041AL  23076.36640227  .00005284  00000-0  34988-3 0  9994,2 52295  53.2152 304.7959 0001004  96.7374 263.3732 15.08834241 50200,6917.898,95.438,540.458,539.068,0.0
52295.0,STARLINK-3765,PAYLOAD,2023-03-17 21:30:42,15.08841608,9.83e-05,53.2154,302.4176,88.6935,271.4169,0.00041081,6.257e-05,0.0,0 STARLINK-3765,1 52295U 22041AL  23076.89632280  .00006257  00000-0  41081-3 0  9995,2 52295  53.2154 302.4176 0000983  88.6935 271.4169 15.08841608 50283,6917.875,95.437,540.421,539.06,0.0
52295.0,STARLINK-3765,PAYLOAD,2023-03-18 00:41:28,15.08844713,0.0001046,53.2153,301.8224,90.1364,269.9748,0.00048438,7.43e-05,0.0,0 STARLINK-3765,1 52295U 22041AL  23077.02880216  .00007430  00000-0  48438-3 0  9992,2 52295  53.2153 301.8224 0001046  90.1364 269.9748 15.08844713 51527,6917.866,95.437,540.455,539.007,0.0
52295.0,STARLINK-3765,PAYLOAD,2023-03-18 21:21:28,15.08855492,0.0001082,53.2148,297.956,92.7315,267.3801,0.00046279,7.088e-05,0.0,0 STARLINK-3765,1 52295U 22041AL  23077.88991641  .00007088  00000-0  46279-3 0  9991,2 52295  53.2148 297.9560 0001082  92.7315 267.3801 15.08855492 50430,6917.833,95.437,540.447,538.95,0.0
52295.0,STARLINK-3765,PAYLOAD,2023-03-19 00:32:14,15.08858028,0.0001084,53.2148,297.3612,93.0682,267.0434,0.00047252,7.244e-05,0.0,0 STARLINK-3765,1 52295U 22041AL  23078.02239460  .00007244  00000-0  47252-3 0  9998,2 52295  53.2148 297.3612 0001084  93.0682 267.0434 15.08858028 50454,6917.825,95.436,540.44,538.94,0.0
52295.0,STARLINK-3765,PAYLOAD,2023-03-19 21:12:15,15.08853469,0.0001058,53.2147,293.4948,92.8588,267.2526,0.00025465,3.769e-05,0.0,0 STARLINK-3765,1 52295U 22041AL  23078.88351235  .00003769  00000-0  25465-3 0  9997,2 52295  53.2147 293.4948 0001058  92.8588 267.2526 15.08853469 51803,6917.839,95.437,540.436,538.972,0.0
52295.0,STARLINK-3765,PAYLOAD,2023-03-20 06:44:34,15.08852299,9.43e-05,53.2143,291.7109,89.1741,270.936,0.00020967,3.052e-05,0.0,0 STARLINK-3765,1 52295U 22041AL  23079.28095049  .00003052  00000-0  20967-3 0  9997,2 52295  53.2143 291.7109 0000943  89.1741 270.9360 15.08852299 50649,6917.843,95.437,540.36,539.055,0.0
52295.0,STARLINK-3765,PAYLOAD,2023-03-20 21:03:03,15.08819417,0.0001231,53.2145,289.0356,92.6676,267.4457,-0.00030118,-5.075e-05,0.0,0 STARLINK-3765,1 52295U 22041AL  23079.87712547 -.00005075  00000-0 -30118-3 0  9999,2 52295  53.2145 289.0356 0001231  92.6676 267.4457 15.08819417 51950,6917.943,95.439,540.66,538.957,0.0
52295.0,STARLINK-3765,PAYLOAD,2023-03-21 00:13:50,15.08818821,0.0001223,53.2144,288.4406,92.0825,268.0308,-0.00020902,-3.611e-05,0.0,0 STARLINK-3765,1 52295U 22041AL  23080.00960809 -.00003611  00000-0 -20902-3 0  9996,2 52295  53.2144 288.4406 0001223  92.0825 268.0308 15.08818821 50756,6917.945,95.439,540.656,538.964,0.0
52295.0,STARLINK-3765,PAYLOAD,2023-03-21 19:18:28,15.08838958,0.0001405,53.2152,284.8725,97.6884,262.4267,0.00044458,6.794e-05,0.0,0 STARLINK-3765,1 52295U 22041AL  23080.80449149  .00006794  00000-0  44458-3 0  9998,2 52295  53.2152 284.8725 0001405  97.6884 262.4267 15.08838958 52091,6917.884,95.438,540.721,538.777,0.0
52295.0,STARLINK-3765,PAYLOAD,2023-03-22 00:04:37,15.08848851,0.000121,53.2146,283.9797,85.6468,274.4662,0.0009851,0.00015428,0.0,0 STARLINK-3765,1 52295U 22041AL  23081.00321199  .00015428  00000-0  98510-3 0  9997,2 52295  53.2146 283.9797 0001210  85.6468 274.4662 15.08848851 52121,6917.853,95.437,540.555,538.881,0.0
52295.0,STARLINK-3765,PAYLOAD,2023-03-22 20:44:37,15.08875356,0.0001186,53.2142,280.1133,82.1202,277.9924,0.00094937,0.00014868,0.0,0 STARLINK-3765,1 52295U 22041AL  23081.86431849  .00014868  00000-0  94937-3 0  9991,2 52295  53.2142 280.1133 0001186  82.1202 277.9924 15.08875356 51038,6917.772,95.435,540.458,538.817,0.0
52295.0,STARLINK-3765,PAYLOAD,2023-03-23 06:16:55,15.0885959,0.0001482,53.2154,278.3294,69.5456,290.5695,0.00028871,4.312e-05,0.0,0 STARLINK-3765,1 52295U 22041AL  23082.26175694  .00004312  00000-0  28871-3 0  9996,2 52295  53.2154 278.3294 0001482  69.5456 290.5695 15.08859590 52317,6917.821,95.436,540.711,538.66,0.0
52295.0,STARLINK-3765,PAYLOAD,2023-03-23 20:35:23,15.08855658,0.0001285,53.2139,275.6543,65.73,294.3826,0.00068159,0.00010581,0.0,0 STARLINK-3765,1 52295U 22041AL  23082.85791661  .00010581  00000-0  68159-3 0  9997,2 52295  53.2139 275.6543 0001285  65.7300 294.3826 15.08855658 52403,6917.833,95.437,540.586,538.809,0.0
52295.0,STARLINK-3765,PAYLOAD,2023-03-24 06:07:42,15.08886413,0.0001425,53.2151,273.8689,65.6365,294.4776,0.0026037,0.00041447,0.0,0 STARLINK-3765,1 52295U 22041AL  23083.25535586  .00041447  00000-0  26037-2 0  9997,2 52295  53.2151 273.8689 0001425  65.6365 294.4776 15.08886413 52468,6917.739,95.435,540.589,538.618,0.0
52295.0,STARLINK-3765,PAYLOAD,2023-03-24 18:50:47,15.08855892,9.8e-05,53.2139,271.4906,65.642,294.4675,0.00063214,9.791e-05,0.0,0 STARLINK-3765,1 52295U 22041AL  23083.78527341  .00009791  00000-0  63214-3 0  9990,2 52295  53.2139 271.4906 0000980  65.6420 294.4675 15.08855892 52541,6917.832,95.437,540.375,539.019,0.0
52295.0,STARLINK-3765,PAYLOAD,2023-03-25 12:20:03,15.08820376,0.0001294,53.2147,268.2217,67.2317,292.8811,-0.00039248,-6.525e-05,0.0,0 STARLINK-3765,1 52295U 22041AL  23084.51392426 -.00006525  00000-0 -39248-3 0  9990,2 52295  53.2147 268.2217 0001294  67.2317 292.8811 15.08820376 52656,6917.94,95.439,540.701,538.91,0.0
52295.0,STARLINK-3765,PAYLOAD,2023-03-25 18:41:35,15.08817134,0.0001034,53.2148,267.0299,85.2045,274.9065,-0.00022663,-3.89e-05,0.0,0 STARLINK-3765,1 52295U 22041AL  23084.77888825 -.00003890  00000-0 -22663-3 0  9996,2 52295  53.2148 267.0299 0001034  85.2045 274.9065 15.08817134 51473,6917.95,95.439,540.531,539.1,0.0
52295.0,STARLINK-3765,PAYLOAD,2023-03-26 12:10:51,15.08831166,0.0001226,53.2144,263.7577,92.157,267.9562,0.00058597,9.048e-05,0.0,0 STARLINK-3765,1 52295U 22041AL  23085.50753646  .00009048  00000-0  58597-3 0  9994,2 52295  53.2144 263.7577 0001226  92.1570 267.9562 15.08831166 52807,6917.907,95.438,540.621,538.924,0.0
52295.0,STARLINK-3765,PAYLOAD,2023-03-26 18:32:23,15.08850051,0.0001146,53.2153,262.5688,90.15,269.9623,0.0013966,0.00022015,0.0,0 STARLINK-3765,1 52295U 22041AL  23085.77249689  .00022015  00000-0  13966-2 0  9999,2 52295  53.2153 262.5688 0001146  90.1500 269.9623 15.08850051 51622,6917.85,95.437,540.507,538.922,0.0
52295.0,STARLINK-3765,PAYLOAD,2023-03-27 12:01:37,15.08861906,0.0001109,53.2149,259.2975,87.865,272.2469,0.00082027,0.00012799,0.0,0 STARLINK-3765,1 52295U 22041AL  23086.50113023  .00012799  00000-0  82027-3 0  9996,2 52295  53.2149 259.2975 0001109  87.8650 272.2469 15.08861906 52950,6917.813,95.436,540.446,538.911,0.0
52295.0,STARLINK-3765,PAYLOAD,2023-03-27 18:23:09,15.0887004,0.0001102,53.2152,258.1082,87.4789,272.6329,0.00088887,0.00013898,0.0,0 STARLINK-3765,1 52295U 22041AL  23086.76608534  .00013898  00000-0  88887-3 0  9991,2 52295  53.2152 258.1082 0001102  87.4789 272.6329 15.08870040 51770,6917.789,95.436,540.416,538.891,0.0
52295.0,STARLINK-3765,PAYLOAD,2023-03-28 03:55:28,15.08867921,0.000117,53.216,256.3252,89.5792,270.5334,0.00065597,0.00010175,0.0,0 STARLINK-3765,1 52295U 22041AL  23087.16352077  .00010175  00000-0  65597-3 0  9992,2 52295  53.2160 256.3252 0001170  89.5792 270.5334 15.08867921 53050,6917.795,95.436,540.469,538.851,0.0
52295.0,STARLINK-3765,PAYLOAD,2023-03-28 11:52:23,15.0884577,0.0001085,53.2149,254.8369,81.8019,278.3096,-0.00022593,-3.882e-05,0.0,0 STARLINK-3765,1 52295U 22041AL  23087.49472124 -.00003882  00000-0 -22593-3 0  9992,2 52295  53.2149 254.8369 0001085  81.8019 278.3096 15.08845770 51889,6917.863,95.437,540.478,538.977,0.0
52295.0,STARLINK-3765,PAYLOAD,2023-03-28 15:03:10,15.08848648,0.0001098,53.2148,254.2421,83.2191,276.8926,-1.5112e-05,-5.28e-06,0.0,0 STARLINK-3765,1 52295U 22041AL  23087.62720161 -.00000528  00000-0 -15112-4 0  9998,2 52295  53.2148 254.2421 0001098  83.2191 276.8926 15.08848648 53123,6917.854,95.437,540.479,538.959,0.0
52295.0,STARLINK-3765,PAYLOAD,2023-03-28 18:13:56,15.08852552,0.0001026,53.2149,253.6478,83.8334,276.2775,0.00012482,1.7e-05,0.0,0 STARLINK-3765,1 52295U 22041AL  23087.75967965  .00001700  00000-0  12482-3 0  9994,2 52295  53.2149 253.6478 0001026  83.8334 276.2775 15.08852552 51926,6917.842,95.437,540.417,538.997,0.0
52295.0,STARLINK-3765,PAYLOAD,2023-03-29 10:07:47,15.08846852,9.56e-05,53.2149,250.6751,93.2634,266.8468,0.00022656,3.32e-05,0.0,0 STARLINK-3765,1 52295U 22041AL  23088.42207989  .00003320  00000-0  22656-3 0  9996,2 52295  53.2149 250.6751 0000956  93.2634 266.8468 15.08846852 52028,6917.859,95.437,540.386,539.063,0.0
